GLOBALSTAR M023 [+]     
1 25621U 99004A   24067.15920522 -.00000071  00000+0  18393-3 0  9998
2 25621  52.0121  35.4877 0010227 171.9242 201.5541 12.62448533156740
GLOBALSTAR M040 [-]     
1 25622U 99004B   24067.62454317 -.00000063  00000+0  22602-3 0  9994
2 25622  51.9932  37.5415 0001069  84.0070  98.5355 12.61968506156346
GLOBALSTAR M036 [-]     
1 25623U 99004C   24067.29969675 -.00000045  00000+0  55326-3 0  9995
2 25623  51.9986  30.8901 0011330 236.4445 272.5307 11.86561873123553
GLOBALSTAR M038 [-]     
1 25624U 99004D   24068.04100789 -.00000057  00000+0  31012-3 0  9992
2 25624  51.9998 333.9827 0001875 142.2541 320.0001 12.32494199144859
GLOBALSTAR M022 [-]     
1 25649U 99012A   24067.41112125 -.00000101  00000+0 -17020-3 0  9999
2 25649  52.0024 119.7877 0002127 326.7559  46.0117 12.02478256120223
GLOBALSTAR M041 [-]     
1 25650U 99012B   24067.46476494 -.00000054  00000+0  40642-3 0  9990
2 25650  52.0053 346.8650 0002669 100.9308 259.1829 11.96656665122407
GLOBALSTAR M046 [-]     
1 25651U 99012C   24068.03544383 -.00000060  00000+0  32046-3 0  9994
2 25651  52.0048  85.2389 0002257  49.2619 326.5462 12.09386698127619
GLOBALSTAR M037 [+]     
1 25652U 99012D   24067.99620723 -.00000055  00000+0  27300-3 0  9993
2 25652  51.9995 163.7383 0001732 211.6597 196.4755 12.62397761152442
